start=new Date('2022-05-31T00:00:00.000Z').valueOf();
sats=[{"MEAN_MOTION":"15.06388266","SEMIMAJOR_AXIS":"6925.385","ARG_OF_PERICENTER":"64.8549","CENTER_NAME":"EARTH","FILE":"3472994","MEAN_MOTION_DOT":"-0.00003031","DECAY_DATE":null,"REV_AT_EPOCH":"9164","REF_FRAME":"TEME","GP_ID":"204977641","OBJECT_NAME":"STARLINK-1699","OBJECT_ID":"2020-070S","TLE_LINE2":"2 46548  53.0544 247.5428 0001512  64.8549 295.2596 15.06388266 91640","BSTAR":"-0.00018473000000","SITE":"AFETR","CLASSIFICATION_TYPE":"U","PERIAPSIS":"546.202","TLE_LINE1":"1 46548U 20070S   22150.61169540 -.00003031  00000-0 -18473-3 0  9993","EPHEMERIS_TYPE":"0","RCS_SIZE":"LARGE","LAUNCH_DATE":"2020-10-06","OBJECT_TYPE":"PAYLOAD","ELEMENT_SET_NO":"999","MEAN_ANOMALY":"295.2596","INCLINATION":"53.0544","COUNTRY_CODE":"US","APOAPSIS":"548.297","TIME_SYSTEM":"UTC","MEAN_ELEMENT_THEORY":"SGP4","MEAN_MOTION_DDOT":"0.0000000000000","ECCENTRICITY":"0.00015120","NORAD_CAT_ID":"46548","RA_OF_ASC_NODE":"247.5428","PERIOD":"95.593","EPOCH":"2022-05-30T14:40:50.482560"},{"EPOCH":"2022-05-30T16:58:51.175200","PERIOD":"95.593","ECCENTRICITY":"0.00015410","RA_OF_ASC_NODE":"247.1089","NORAD_CAT_ID":"46549","MEAN_ELEMENT_THEORY":"SGP4","MEAN_MOTION_DDOT":"0.0000000000000","MEAN_ANOMALY":"291.7626","ELEMENT_SET_NO":"999","LAUNCH_DATE":"2020-10-06","OBJECT_TYPE":"PAYLOAD","APOAPSIS":"548.320","TIME_SYSTEM":"UTC","INCLINATION":"53.0562","COUNTRY_CODE":"US","EPHEMERIS_TYPE":"0","RCS_SIZE":"LARGE","SITE":"AFETR","CLASSIFICATION_TYPE":"U","TLE_LINE1":"1 46549U 20070T   22150.70753675 -.00000947  00000-0 -44727-4 0  9997","PERIAPSIS":"546.186","TLE_LINE2":"2 46549  53.0562 247.1089 0001541  68.3527 291.7626 15.06387108 91657","BSTAR":"-0.00004472700000","OBJECT_NAME":"STARLINK-1700","OBJECT_ID":"2020-070T","GP_ID":"204977891","REF_FRAME":"TEME","MEAN_MOTION_DOT":"-0.00000947","REV_AT_EPOCH":"9165","DECAY_DATE":null,"FILE":"3472994","CENTER_NAME":"EARTH","ARG_OF_PERICENTER":"68.3527","MEAN_MOTION":"15.06387108","SEMIMAJOR_AXIS":"6925.388"},{"TLE_LINE1":"1 46550U 20070U   22150.69279377 -.00002278  00000-0 -13416-3 0  9998","PERIAPSIS":"545.888","SITE":"AFETR","CLASSIFICATION_TYPE":"U","TIME_SYSTEM":"UTC","APOAPSIS":"548.647","COUNTRY_CODE":"US","INCLINATION":"53.0545","MEAN_ANOMALY":"311.0188","ELEMENT_SET_NO":"999","LAUNCH_DATE":"2020-10-06","OBJECT_TYPE":"PAYLOAD","RCS_SIZE":"LARGE","EPHEMERIS_TYPE":"0","RA_OF_ASC_NODE":"247.1826","NORAD_CAT_ID":"46550","ECCENTRICITY":"0.00019920","MEAN_ELEMENT_THEORY":"SGP4","MEAN_MOTION_DDOT":"0.0000000000000","EPOCH":"2022-05-30T16:37:37.381728","PERIOD":"95.593","ARG_OF_PERICENTER":"49.0974","SEMIMAJOR_AXIS":"6925.402","MEAN_MOTION":"15.06382456","FILE":"3472994","CENTER_NAME":"EARTH","REF_FRAME":"TEME","GP_ID":"204977143","REV_AT_EPOCH":"9165","DECAY_DATE":null,"MEAN_MOTION_DOT":"-0.00002278","TLE_LINE2":"2 46550  53.0545 247.1826 0001992  49.0974 311.0188 15.06382456 91651","BSTAR":"-0.00013416000000","OBJECT_ID":"2020-070U","OBJECT_NAME":"STARLINK-1701"},{"EPOCH":"2022-05-30T15:38:33.929376","PERIOD":"95.593","MEAN_MOTION_DDOT":"0.0000000000000","MEAN_ELEMENT_THEORY":"SGP4","RA_OF_ASC_NODE":"232.3487","NORAD_CAT_ID":"46552","ECCENTRICITY":"0.00015400","RCS_SIZE":"LARGE","EPHEMERIS_TYPE":"0","TIME_SYSTEM":"UTC","APOAPSIS":"548.336","INCLINATION":"53.0527","COUNTRY_CODE":"US","ELEMENT_SET_NO":"999","MEAN_ANOMALY":"294.1617","OBJECT_TYPE":"PAYLOAD","LAUNCH_DATE":"2020-10-06","TLE_LINE1":"1 46552U 20070W   22150.65178159 -.00004297  00000-0 -26987-3 0  9992","PERIAPSIS":"546.203","CLASSIFICATION_TYPE":"U","SITE":"AFETR","OBJECT_ID":"2020-070W","OBJECT_NAME":"STARLINK-1649","TLE_LINE2":"2 46552  53.0527 232.3487 0001540  65.9533 294.1617 15.06381663 91869","BSTAR":"-0.00026987000000","REV_AT_EPOCH":"9186","DECAY_DATE":null,"MEAN_MOTION_DOT":"-0.00004297","GP_ID":"204976893","REF_FRAME":"TEME","CENTER_NAME":"EARTH","FILE":"3472994","SEMIMAJOR_AXIS":"6925.405","MEAN_MOTION":"15.06381663","ARG_OF_PERICENTER":"65.9533"},{"EPOCH":"2022-05-30T21:06:59.536800","PERIOD":"95.593","ECCENTRICITY":"0.00015110","RA_OF_ASC_NODE":"216.3483","NORAD_CAT_ID":"46553","MEAN_MOTION_DDOT":"0.0000000000000","MEAN_ELEMENT_THEORY":"SGP4","ELEMENT_SET_NO":"999","MEAN_ANOMALY":"297.0250","OBJECT_TYPE":"PAYLOAD","LAUNCH_DATE":"2020-10-06","TIME_SYSTEM":"UTC","APOAPSIS":"548.286","INCLINATION":"53.0548","COUNTRY_CODE":"US","EPHEMERIS_TYPE":"0","RCS_SIZE":"LARGE","SITE":"AFETR","CLASSIFICATION_TYPE":"U","TLE_LINE1":"1 46553U 20070X   22150.87985575 -.00001121  00000-0 -56412-4 0  9995","PERIAPSIS":"546.193","TLE_LINE2":"2 46553  53.0548 216.3483 0001511  63.0894 297.0250 15.06391652 92100","BSTAR":"-0.00005641200000","OBJECT_NAME":"STARLINK-1664","OBJECT_ID":"2020-070X","REF_FRAME":"TEME","GP_ID":"204978141","MEAN_MOTION_DOT":"-0.00001121","REV_AT_EPOCH":"9210","DECAY_DATE":null,"FILE":"3472994","CENTER_NAME":"EARTH","ARG_OF_PERICENTER":"63.0894","MEAN_MOTION":"15.06391652","SEMIMAJOR_AXIS":"6925.374"},{"CENTER_NAME":"EARTH","FILE":"3472994","SEMIMAJOR_AXIS":"6925.420","MEAN_MOTION":"15.06376665","ARG_OF_PERICENTER":"79.2656","OBJECT_ID":"2020-070Y","OBJECT_NAME":"STARLINK-1671","TLE_LINE2":"2 46554  53.0548 232.5844 0001703  79.2656 280.8524 15.06376665 91852","BSTAR":"-0.00014154000000","DECAY_DATE":null,"REV_AT_EPOCH":"9185","MEAN_MOTION_DOT":"-0.00002388","GP_ID":"204978391","REF_FRAME":"TEME","RCS_SIZE":"LARGE","EPHEMERIS_TYPE":"0","COUNTRY_CODE":"US","INCLINATION":"53.0548","TIME_SYSTEM":"UTC","APOAPSIS":"548.464","LAUNCH_DATE":"2020-10-06","OBJECT_TYPE":"PAYLOAD","MEAN_ANOMALY":"280.8524","ELEMENT_SET_NO":"999","PERIAPSIS":"546.106","TLE_LINE1":"1 46554U 20070Y   22150.60019238 -.00002388  00000-0 -14154-3 0  9993","SITE":"AFETR","CLASSIFICATION_TYPE":"U","PERIOD":"95.594","EPOCH":"2022-05-30T14:24:16.621632","MEAN_ELEMENT_THEORY":"SGP4","MEAN_MOTION_DDOT":"0.0000000000000","NORAD_CAT_ID":"46554","RA_OF_ASC_NODE":"232.5844","ECCENTRICITY":"0.00017030"},{"PERIAPSIS":"546.086","TLE_LINE1":"1 46556U 20070AA  22150.52692503 -.00003476  00000-0 -21465-3 0  9990","SITE":"AFETR","CLASSIFICATION_TYPE":"U","RCS_SIZE":"LARGE","EPHEMERIS_TYPE":"0","INCLINATION":"53.0537","COUNTRY_CODE":"US","APOAPSIS":"548.469","TIME_SYSTEM":"UTC","LAUNCH_DATE":"2020-10-06","OBJECT_TYPE":"PAYLOAD","ELEMENT_SET_NO":"999","MEAN_ANOMALY":"298.3417","MEAN_ELEMENT_THEORY":"SGP4","MEAN_MOTION_DDOT":"0.0000000000000","NORAD_CAT_ID":"46556","RA_OF_ASC_NODE":"247.9212","ECCENTRICITY":"0.00017200","PERIOD":"95.593","EPOCH":"2022-05-30T12:38:46.322592","SEMIMAJOR_AXIS":"6925.412","MEAN_MOTION":"15.06379183","ARG_OF_PERICENTER":"61.7745","CENTER_NAME":"EARTH","FILE":"3472994","DECAY_DATE":null,"REV_AT_EPOCH":"9163","MEAN_MOTION_DOT":"-0.00003476","REF_FRAME":"TEME","GP_ID":"204976645","OBJECT_ID":"2020-070AA","OBJECT_NAME":"STARLINK-1676","TLE_LINE2":"2 46556  53.0537 247.9212 0001720  61.7745 298.3417 15.06379183 91634","BSTAR":"-0.00021465000000"},{"MEAN_MOTION":"15.06384690","SEMIMAJOR_AXIS":"6925.395","ARG_OF_PERICENTER":"71.9341","CENTER_NAME":"EARTH","FILE":"3472994","MEAN_MOTION_DOT":"-0.00003302","REV_AT_EPOCH":"9186","DECAY_DATE":null,"GP_ID":"204977393","REF_FRAME":"TEME","OBJECT_NAME":"STARLINK-1679","OBJECT_ID":"2020-070AB","TLE_LINE2":"2 46557  53.0563 232.4399 0001697  71.9341 288.1833 15.06384690 91860","BSTAR":"-0.00020293000000","SITE":"AFETR","CLASSIFICATION_TYPE":"U","TLE_LINE1":"1 46557U 20070AB  22150.63704148 -.00003302  00000-0 -20293-3 0  9998","PERIAPSIS":"546.085","EPHEMERIS_TYPE":"0","RCS_SIZE":"LARGE","MEAN_ANOMALY":"288.1833","ELEMENT_SET_NO":"999","OBJECT_TYPE":"PAYLOAD","LAUNCH_DATE":"2020-10-06","TIME_SYSTEM":"UTC","APOAPSIS":"548.436","INCLINATION":"53.0563","COUNTRY_CODE":"US","MEAN_ELEMENT_THEORY":"SGP4","MEAN_MOTION_DDOT":"0.0000000000000","ECCENTRICITY":"0.00016970","RA_OF_ASC_NODE":"232.4399","NORAD_CAT_ID":"46557","EPOCH":"2022-05-30T15:17:20.383872","PERIOD":"95.593"},{"ARG_OF_PERICENTER":"66.7173","MEAN_MOTION":"15.06383391","SEMIMAJOR_AXIS":"6925.399","FILE":"3472994","CENTER_NAME":"EARTH","REF_FRAME":"TEME","GP_ID":"204977642","MEAN_MOTION_DOT":"-0.00002014","REV_AT_EPOCH":"9184","DECAY_DATE":null,"TLE_LINE2":"2 46558  53.0543 232.0824 0001449  66.7173 293.3968 15.06383391 91840","BSTAR":"-0.00011643000000","OBJECT_NAME":"STARLINK-1680","OBJECT_ID":"2020-070AC","SITE":"AFETR","CLASSIFICATION_TYPE":"U","TLE_LINE1":"1 46558U 20070AC  22150.71075987 -.00002014  00000-0 -11643-3 0  9998","PERIAPSIS":"546.261","ELEMENT_SET_NO":"999","MEAN_ANOMALY":"293.3968","LAUNCH_DATE":"2020-10-06","OBJECT_TYPE":"PAYLOAD","TIME_SYSTEM":"UTC","APOAPSIS":"548.268","INCLINATION":"53.0543","COUNTRY_CODE":"US","EPHEMERIS_TYPE":"0","RCS_SIZE":"LARGE","ECCENTRICITY":"0.00014490","RA_OF_ASC_NODE":"232.0824","NORAD_CAT_ID":"46558","MEAN_ELEMENT_THEORY":"SGP4","MEAN_MOTION_DDOT":"0.0000000000000","EPOCH":"2022-05-30T17:03:29.652768","PERIOD":"95.593"},{"MEAN_MOTION_DOT":"-0.00001919","DECAY_DATE":null,"REV_AT_EPOCH":"9211","GP_ID":"204953196","REF_FRAME":"TEME","OBJECT_NAME":"STARLINK-1681","OBJECT_ID":"2020-070AD","TLE_LINE2":"2 46559  53.0548 216.2518 0001428  61.7811 298.3322 15.06388672 92118","BSTAR":"-0.00010999000000","MEAN_MOTION":"15.06388672","SEMIMAJOR_AXIS":"6925.383","ARG_OF_PERICENTER":"61.7811","CENTER_NAME":"EARTH","FILE":"3472852","MEAN_ELEMENT_THEORY":"SGP4","MEAN_MOTION_DDOT":"0.0000000000000","ECCENTRICITY":"0.00014280","NORAD_CAT_ID":"46559","RA_OF_ASC_NODE":"216.2518","PERIOD":"95.593","EPOCH":"2022-05-30T21:33:31.616640","SITE":"AFETR","CLASSIFICATION_TYPE":"U","PERIAPSIS":"546.259","TLE_LINE1":"1 46559U 20070AD  22150.89828260 -.00001919  00000-0 -10999-3 0  9994","EPHEMERIS_TYPE":"0","RCS_SIZE":"LARGE","LAUNCH_DATE":"2020-10-06","OBJECT_TYPE":"PAYLOAD","ELEMENT_SET_NO":"999","MEAN_ANOMALY":"298.3322","COUNTRY_CODE":"US","INCLINATION":"53.0548","APOAPSIS":"548.237","TIME_SYSTEM":"UTC"}];
